IRIDIUM 33 DEB          
1 34487U 97051GC  26061.79202951  .00000806  00000+0  23212-3 0  9994
2 34487  86.3484 337.9268 0029169 223.2985 199.8028 14.43369102894031
IRIDIUM 33 DEB          
1 34488U 97051GD  26053.04643645  .01238203  00000+0  64727-2 0  9993
2 34488  86.3081 269.5420 0004770  70.8002 289.3788 15.78089963903416
IRIDIUM 33 DEB          
1 34492U 97051GH  26061.45967688  .00013732  00000+0  46205-2 0  9996
2 34492  86.4711 302.3655 0187293 342.8326 135.1688 14.27569367861954
IRIDIUM 33 DEB          
1 34497U 97051GN  26060.37736337  .00002181  00000+0  84493-3 0  9994
2 34497  86.2798  18.7885 0082499  84.6063  44.9371 14.27743173880053
IRIDIUM 33 DEB          
1 34508U 97051GZ  26061.93746107  .00004056  00000+0  12779-2 0  9996
2 34508  86.3654  68.6027 0061761 270.5395  88.8726 14.39071732884629
IRIDIUM 33 DEB          
1 34521U 97051HN  26061.82676051  .00008529  00000+0  16037-2 0  9999
2 34521  86.3833 355.2617 0005196  24.0696 336.0759 14.64538407896441
IRIDIUM 33 DEB          
1 34525U 97051HS  26061.92239703  .00001582  00000+0  46551-3 0  9990
2 34525  86.3765  12.6066 0004378 156.7485 269.5484 14.43150566892445
IRIDIUM 33 DEB          
1 34529U 97051HW  26061.85275255  .00000797  00000+0  24319-3 0  9993
2 34529  86.3688   1.2600 0003485 321.9494  38.1458 14.40726780892956
IRIDIUM 33 DEB          
1 34538U 97051JF  26062.20271395  .00003250  00000+0  95290-3 0  9997
2 34538  86.2803 330.3147 0036594  59.3109  92.2852 14.43235340889166
IRIDIUM 33 DEB          
1 34540U 97051JH  26062.06277110  .00010546  00000+0  14813-2 0  9992
2 34540  86.3053 270.8228 0014424 249.0869 233.3046 14.77248539902063
IRIDIUM 33 DEB          
1 34648U 97051JZ  26061.95236875  .00007777  00000+0  35675-2 0  9992
2 34648  86.3888 249.5138 0176186  44.4992 317.0188 14.13311449860936
IRIDIUM 33 DEB          
1 34651U 97051KC  26062.13324882  .00007447  00000+0  27749-2 0  9990
2 34651  86.2787 106.3210 0131984 305.0977  53.7897 14.27173302870429
IRIDIUM 33 DEB          
1 34652U 97051KD  26060.98346245  .00004246  00000+0  82116-3 0  9993
2 34652  86.3308 304.7100 0029250  28.6955  34.7686 14.62898346896422
IRIDIUM 33 DEB          
1 34690U 97051KM  26061.28230976  .00002021  00000+0  46006-3 0  9999
2 34690  86.3815   2.4115 0012347 102.3291  50.3492 14.55427803892510
IRIDIUM 33 DEB          
1 34693U 97051KQ  26055.99059176  .01322234  00000+0  68577-2 0  9992
2 34693  86.2833 265.9163 0003939  44.5223 315.6368 15.78525000900614
IRIDIUM 33 DEB          
1 34696U 97051KT  26061.24628348  .00042964  00000+0  66815-2 0  9994
2 34696  86.1819 350.3526 0057233 259.7497 263.3155 14.71707100878398
