[{"OBJECT_NAME":"IRIDIUM 33 DEB","OBJECT_ID":"1997-051GC","EPOCH":"2026-03-02T19:00:31.349664","MEAN_MOTION":14.43369102,"ECCENTRICITY":0.0029169,"INCLINATION":86.3484,"RA_OF_ASC_NODE":337.9268,"ARG_OF_PERICENTER":223.2985,"MEAN_ANOMALY":199.8028,"EPHEMERIS_TYPE":0,"CLASSIFICATION_TYPE":"U","NORAD_CAT_ID":34487,"ELEMENT_SET_NO":999,"REV_AT_EPOCH":89403,"BSTAR":0.00023211566,"MEAN_MOTION_DOT":8.06e-6,"MEAN_MOTION_DDOT":0},{"OBJECT_NAME":"IRIDIUM 33 DEB","OBJECT_ID":"1997-051GD","EPOCH":"2026-02-22T01:06:52.109280","MEAN_MOTION":15.78089963,"ECCENTRICITY":0.00047702,"INCLINATION":86.3081,"RA_OF_ASC_NODE":269.542,"ARG_OF_PERICENTER":70.8002,"MEAN_ANOMALY":289.3788,"EPHEMERIS_TYPE":0,"CLASSIFICATION_TYPE":"U","NORAD_CAT_ID":34488,"ELEMENT_SET_NO":999,"REV_AT_EPOCH":90341,"BSTAR":0.0064727089,"MEAN_MOTION_DOT":0.01238203,"MEAN_MOTION_DDOT":0},{"OBJECT_NAME":"IRIDIUM 33 DEB","OBJECT_ID":"1997-051GH","EPOCH":"2026-03-02T11:01:56.082432","MEAN_MOTION":14.27569367,"ECCENTRICITY":0.01872934,"INCLINATION":86.4711,"RA_OF_ASC_NODE":302.3655,"ARG_OF_PERICENTER":342.8326,"MEAN_ANOMALY":135.1688,"EPHEMERIS_TYPE":0,"CLASSIFICATION_TYPE":"U","NORAD_CAT_ID":34492,"ELEMENT_SET_NO":999,"REV_AT_EPOCH":86195,"BSTAR":0.0046205222,"MEAN_MOTION_DOT":0.00013732,"MEAN_MOTION_DDOT":0},{"OBJECT_NAME":"IRIDIUM 33 DEB","OBJECT_ID":"1997-051GN","EPOCH":"2026-03-01T09:03:24.195168","MEAN_MOTION":14.27743173,"ECCENTRICITY":0.00824996,"INCLINATION":86.2798,"RA_OF_ASC_NODE":18.7885,"ARG_OF_PERICENTER":84.6063,"MEAN_ANOMALY":44.9371,"EPHEMERIS_TYPE":0,"CLASSIFICATION_TYPE":"U","NORAD_CAT_ID":34497,"ELEMENT_SET_NO":999,"REV_AT_EPOCH":88005,"BSTAR":0.00084492746,"MEAN_MOTION_DOT":2.181e-5,"MEAN_MOTION_DDOT":0},{"OBJECT_NAME":"IRIDIUM 33 DEB","OBJECT_ID":"1997-051GZ","EPOCH":"2026-03-02T22:29:56.636448","MEAN_MOTION":14.39071732,"ECCENTRICITY":0.0061761,"INCLINATION":86.3654,"RA_OF_ASC_NODE":68.6027,"ARG_OF_PERICENTER":270.5395,"MEAN_ANOMALY":88.8726,"EPHEMERIS_TYPE":0,"CLASSIFICATION_TYPE":"U","NORAD_CAT_ID":34508,"ELEMENT_SET_NO":999,"REV_AT_EPOCH":88462,"BSTAR":0.0012779,"MEAN_MOTION_DOT":4.056e-5,"MEAN_MOTION_DDOT":0},{"OBJECT_NAME":"IRIDIUM 33 DEB","OBJECT_ID":"1997-051HN","EPOCH":"2026-03-02T19:50:32.108064","MEAN_MOTION":14.64538407,"ECCENTRICITY":0.0005196,"INCLINATION":86.3833,"RA_OF_ASC_NODE":355.2617,"ARG_OF_PERICENTER":24.0696,"MEAN_ANOMALY":336.0759,"EPHEMERIS_TYPE":0,"CLASSIFICATION_TYPE":"U","NORAD_CAT_ID":34521,"ELEMENT_SET_NO":999,"REV_AT_EPOCH":89644,"BSTAR":0.0016037,"MEAN_MOTION_DOT":8.529e-5,"MEAN_MOTION_DDOT":0},{"OBJECT_NAME":"IRIDIUM 33 DEB","OBJECT_ID":"1997-051HS","EPOCH":"2026-03-02T22:08:15.103392","MEAN_MOTION":14.43150566,"ECCENTRICITY":0.0004378,"INCLINATION":86.3765,"RA_OF_ASC_NODE":12.6066,"ARG_OF_PERICENTER":156.7485,"MEAN_ANOMALY":269.5484,"EPHEMERIS_TYPE":0,"CLASSIFICATION_TYPE":"U","NORAD_CAT_ID":34525,"ELEMENT_SET_NO":999,"REV_AT_EPOCH":89244,"BSTAR":0.00046551,"MEAN_MOTION_DOT":1.582e-5,"MEAN_MOTION_DDOT":0},{"OBJECT_NAME":"IRIDIUM 33 DEB","OBJECT_ID":"1997-051HW","EPOCH":"2026-03-02T20:27:57.820320","MEAN_MOTION":14.4072678,"ECCENTRICITY":0.0003485,"INCLINATION":86.3688,"RA_OF_ASC_NODE":1.26,"ARG_OF_PERICENTER":321.9494,"MEAN_ANOMALY":38.1458,"EPHEMERIS_TYPE":0,"CLASSIFICATION_TYPE":"U","NORAD_CAT_ID":34529,"ELEMENT_SET_NO":999,"REV_AT_EPOCH":89295,"BSTAR":0.00024319,"MEAN_MOTION_DOT":7.97e-6,"MEAN_MOTION_DDOT":0},{"OBJECT_NAME":"IRIDIUM 33 DEB","OBJECT_ID":"1997-051JF","EPOCH":"2026-03-03T04:51:54.485280","MEAN_MOTION":14.4323534,"ECCENTRICITY":0.0036594,"INCLINATION":86.2803,"RA_OF_ASC_NODE":330.3147,"ARG_OF_PERICENTER":59.3109,"MEAN_ANOMALY":92.2852,"EPHEMERIS_TYPE":0,"CLASSIFICATION_TYPE":"U","NORAD_CAT_ID":34538,"ELEMENT_SET_NO":999,"REV_AT_EPOCH":88916,"BSTAR":0.0009529,"MEAN_MOTION_DOT":3.25e-5,"MEAN_MOTION_DDOT":0},{"OBJECT_NAME":"IRIDIUM 33 DEB","OBJECT_ID":"1997-051JH","EPOCH":"2026-03-03T01:30:23.423040","MEAN_MOTION":14.77248539,"ECCENTRICITY":0.0014424,"INCLINATION":86.3053,"RA_OF_ASC_NODE":270.8228,"ARG_OF_PERICENTER":249.0869,"MEAN_ANOMALY":233.3046,"EPHEMERIS_TYPE":0,"CLASSIFICATION_TYPE":"U","NORAD_CAT_ID":34540,"ELEMENT_SET_NO":999,"REV_AT_EPOCH":90206,"BSTAR":0.0014813,"MEAN_MOTION_DOT":0.00010546,"MEAN_MOTION_DDOT":0},{"OBJECT_NAME":"IRIDIUM 33 DEB","OBJECT_ID":"1997-051JZ","EPOCH":"2026-03-02T22:51:24.660000","MEAN_MOTION":14.13311449,"ECCENTRICITY":0.0176186,"INCLINATION":86.3888,"RA_OF_ASC_NODE":249.5138,"ARG_OF_PERICENTER":44.4992,"MEAN_ANOMALY":317.0188,"EPHEMERIS_TYPE":0,"CLASSIFICATION_TYPE":"U","NORAD_CAT_ID":34648,"ELEMENT_SET_NO":999,"REV_AT_EPOCH":86093,"BSTAR":0.0035675,"MEAN_MOTION_DOT":7.777e-5,"MEAN_MOTION_DDOT":0},{"OBJECT_NAME":"IRIDIUM 33 DEB","OBJECT_ID":"1997-051KC","EPOCH":"2026-03-03T03:11:52.698048","MEAN_MOTION":14.27173302,"ECCENTRICITY":0.0131984,"INCLINATION":86.2787,"RA_OF_ASC_NODE":106.321,"ARG_OF_PERICENTER":305.0977,"MEAN_ANOMALY":53.7897,"EPHEMERIS_TYPE":0,"CLASSIFICATION_TYPE":"U","NORAD_CAT_ID":34651,"ELEMENT_SET_NO":999,"REV_AT_EPOCH":87042,"BSTAR":0.0027749,"MEAN_MOTION_DOT":7.447e-5,"MEAN_MOTION_DDOT":0},{"OBJECT_NAME":"IRIDIUM 33 DEB","OBJECT_ID":"1997-051KD","EPOCH":"2026-03-01T23:36:11.155680","MEAN_MOTION":14.62898346,"ECCENTRICITY":0.002925,"INCLINATION":86.3308,"RA_OF_ASC_NODE":304.71,"ARG_OF_PERICENTER":28.6955,"MEAN_ANOMALY":34.7686,"EPHEMERIS_TYPE":0,"CLASSIFICATION_TYPE":"U","NORAD_CAT_ID":34652,"ELEMENT_SET_NO":999,"REV_AT_EPOCH":89642,"BSTAR":0.00082116,"MEAN_MOTION_DOT":4.246e-5,"MEAN_MOTION_DDOT":0},{"OBJECT_NAME":"IRIDIUM 33 DEB","OBJECT_ID":"1997-051KM","EPOCH":"2026-03-02T06:46:31.563264","MEAN_MOTION":14.55427803,"ECCENTRICITY":0.00123472,"INCLINATION":86.3815,"RA_OF_ASC_NODE":2.4115,"ARG_OF_PERICENTER":102.3291,"MEAN_ANOMALY":50.3492,"EPHEMERIS_TYPE":0,"CLASSIFICATION_TYPE":"U","NORAD_CAT_ID":34690,"ELEMENT_SET_NO":999,"REV_AT_EPOCH":89251,"BSTAR":0.00046005635,"MEAN_MOTION_DOT":2.021e-5,"MEAN_MOTION_DDOT":0},{"OBJECT_NAME":"IRIDIUM 33 DEB","OBJECT_ID":"1997-051KQ","EPOCH":"2026-02-24T23:46:27.128064","MEAN_MOTION":15.78525,"ECCENTRICITY":0.00039393,"INCLINATION":86.2833,"RA_OF_ASC_NODE":265.9163,"ARG_OF_PERICENTER":44.5223,"MEAN_ANOMALY":315.6368,"EPHEMERIS_TYPE":0,"CLASSIFICATION_TYPE":"U","NORAD_CAT_ID":34693,"ELEMENT_SET_NO":999,"REV_AT_EPOCH":90061,"BSTAR":0.0068576941,"MEAN_MOTION_DOT":0.01322234,"MEAN_MOTION_DDOT":0},{"OBJECT_NAME":"IRIDIUM 33 DEB","OBJECT_ID":"1997-051KT","EPOCH":"2026-03-02T05:54:38.892672","MEAN_MOTION":14.717071,"ECCENTRICITY":0.00572334,"INCLINATION":86.1819,"RA_OF_ASC_NODE":350.3526,"ARG_OF_PERICENTER":259.7497,"MEAN_ANOMALY":263.3155,"EPHEMERIS_TYPE":0,"CLASSIFICATION_TYPE":"U","NORAD_CAT_ID":34696,"ELEMENT_SET_NO":999,"REV_AT_EPOCH":87839,"BSTAR":0.0066815318,"MEAN_MOTION_DOT":0.00042964,"MEAN_MOTION_DDOT":0}]
